{
  "type": "FeatureCollection",
  "features": [
    {
      "type": "Feature",
      "properties": {
        "norad_id": 58647,
        "name": "TIANMU-1 13",
        "group": "weather",
        "lat": 23.914396361663385,
        "lon": -173.40914953654416,
        "alt_km": 494.39451712839127,
        "timestamp": "2025-12-09T14:52:25.809313+00:00",
        "meta_object_name": "TIANMU-1 13",
        "meta_object_id": "2023-205C",
        "meta_epoch": "2025-12-09T07:53:27.087072",
        "meta_mean_motion": 15.24458031,
        "meta_eccentricity": 0.00060697,
        "meta_inclination": 97.3624,
        "meta_ra_of_asc_node": 3.018,
        "meta_arg_of_pericenter": 282.9229,
        "meta_mean_anomaly": 77.1331,
        "meta_ephemeris_type": 0,
        "meta_classification_type": "U",
        "meta_norad_cat_id": 58647,
        "meta_element_set_no": 999,
        "meta_rev_at_epoch": 10855,
        "meta_bstar": 0.0003728203,
        "meta_mean_motion_dot": 9.091e-05,
        "meta_mean_motion_ddot": 0,
        "tle_line1": "1 58647U 23205C   25343.32878573  .00009091  00000+0  37282-3 0  9995",
        "tle_line2": "2 58647  97.3624   3.0180 0006069 282.9229  77.1331 15.24458031108554"
      },
      "geometry": {
        "type": "Point",
        "coordinates": [
          -173.40914953654416,
          23.914396361663385
        ]
      }
    },
    {
      "type": "Feature",
      "properties": {
        "norad_id": 58648,
        "name": "TIANMU-1 14",
        "group": "weather",
        "lat": -65.96287523830107,
        "lon": 165.8194302059188,
        "alt_km": 496.06564877155233,
        "timestamp": "2025-12-09T14:52:25.809330+00:00",
        "meta_object_name": "TIANMU-1 14",
        "meta_object_id": "2023-205D",
        "meta_epoch": "2025-12-09T07:29:29.505120",
        "meta_mean_motion": 15.24441611,
        "meta_eccentricity": 0.00069209,
        "meta_inclination": 97.3555,
        "meta_ra_of_asc_node": 2.3535,
        "meta_arg_of_pericenter": 288.0763,
        "meta_mean_anomaly": 71.972,
        "meta_ephemeris_type": 0,
        "meta_classification_type": "U",
        "meta_norad_cat_id": 58648,
        "meta_element_set_no": 999,
        "meta_rev_at_epoch": 10855,
        "meta_bstar": 0.00035535313,
        "meta_mean_motion_dot": 8.658e-05,
        "meta_mean_motion_ddot": 0,
        "tle_line1": "1 58648U 23205D   25343.31214705  .00008658  00000+0  35535-3 0  9993",
        "tle_line2": "2 58648  97.3555   2.3535 0006920 288.0763  71.9720 15.24441611108550"
      },
      "geometry": {
        "type": "Point",
        "coordinates": [
          165.8194302059188,
          -65.96287523830107
        ]
      }
    },
    {
      "type": "Feature",
      "properties": {
        "norad_id": 58660,
        "name": "TIANMU-1 19",
        "group": "weather",
        "lat": 73.61474789876915,
        "lon": -58.95356844969782,
        "alt_km": 478.1401596042597,
        "timestamp": "2025-12-09T14:52:25.809349+00:00",
        "meta_object_name": "TIANMU-1 19",
        "meta_object_id": "2023-208A",
        "meta_epoch": "2025-12-09T06:33:27.421056",
        "meta_mean_motion": 15.27750002,
        "meta_eccentricity": 0.00040497,
        "meta_inclination": 97.439,
        "meta_ra_of_asc_node": 94.3176,
        "meta_arg_of_pericenter": 268.5778,
        "meta_mean_anomaly": 91.4997,
        "meta_ephemeris_type": 0,
        "meta_classification_type": "U",
        "meta_norad_cat_id": 58660,
        "meta_element_set_no": 999,
        "meta_rev_at_epoch": 10829,
        "meta_bstar": 0.00048420548,
        "meta_mean_motion_dot": 0.00013064,
        "meta_mean_motion_ddot": 0,
        "tle_line1": "1 58660U 23208A   25343.27323404  .00013064  00000+0  48421-3 0  9997",
        "tle_line2": "2 58660  97.4390  94.3176 0004049 268.5778  91.4997 15.27750002108297"
      },
      "geometry": {
        "type": "Point",
        "coordinates": [
          -58.95356844969782,
          73.61474789876915
        ]
      }
    },
    {
      "type": "Feature",
      "properties": {
        "norad_id": 58661,
        "name": "TIANMU-1 20",
        "group": "weather",
        "lat": 14.319268528772085,
        "lon": -82.98247903299149,
        "alt_km": 481.76075631526146,
        "timestamp": "2025-12-09T14:52:25.809367+00:00",
        "meta_object_name": "TIANMU-1 20",
        "meta_object_id": "2023-208B",
        "meta_epoch": "2025-12-09T06:17:54.040992",
        "meta_mean_motion": 15.28941074,
        "meta_eccentricity": 0.00063317,
        "meta_inclination": 97.4328,
        "meta_ra_of_asc_node": 94.751,
        "meta_arg_of_pericenter": 280.5986,
        "meta_mean_anomaly": 79.454,
        "meta_ephemeris_type": 0,
        "meta_classification_type": "U",
        "meta_norad_cat_id": 58661,
        "meta_element_set_no": 999,
        "meta_rev_at_epoch": 10836,
        "meta_bstar": 0.0004653633,
        "meta_mean_motion_dot": 0.00013022,
        "meta_mean_motion_ddot": 0,
        "tle_line1": "1 58661U 23208B   25343.26243103  .00013022  00000+0  46536-3 0  9993",
        "tle_line2": "2 58661  97.4328  94.7510 0006331 280.5986  79.4540 15.28941074108366"
      },
      "geometry": {
        "type": "Point",
        "coordinates": [
          -82.98247903299149,
          14.319268528772085
        ]
      }
    },
    {
      "type": "Feature",
      "properties": {
        "norad_id": 58662,
        "name": "TIANMU-1 21",
        "group": "weather",
        "lat": 37.43680434691599,
        "lon": -77.25773458487522,
        "alt_km": 471.54539036533515,
        "timestamp": "2025-12-09T14:52:25.809384+00:00",
        "meta_object_name": "TIANMU-1 21",
        "meta_object_id": "2023-208C",
        "meta_epoch": "2025-12-09T06:24:50.628960",
        "meta_mean_motion": 15.31434426,
        "meta_eccentricity": 0.00058948,
        "meta_inclination": 97.4377,
        "meta_ra_of_asc_node": 96.6487,
        "meta_arg_of_pericenter": 274.8308,
        "meta_mean_anomaly": 85.2261,
        "meta_ephemeris_type": 0,
        "meta_classification_type": "U",
        "meta_norad_cat_id": 58662,
        "meta_element_set_no": 999,
        "meta_rev_at_epoch": 10846,
        "meta_bstar": 0.00050332589,
        "meta_mean_motion_dot": 0.00015223,
        "meta_mean_motion_ddot": 0,
        "tle_line1": "1 58662U 23208C   25343.26725265  .00015223  00000+0  50333-3 0  9993",
        "tle_line2": "2 58662  97.4377  96.6487 0005894 274.8308  85.2261 15.31434426108460"
      },
      "geometry": {
        "type": "Point",
        "coordinates": [
          -77.25773458487522,
          37.43680434691599
        ]
      }
    },
    {
      "type": "Feature",
      "properties": {
        "norad_id": 58663,
        "name": "TIANMU-1 22",
        "group": "weather",
        "lat": 70.0238626175734,
        "lon": -64.21137061202343,
        "alt_km": 478.3281199559924,
        "timestamp": "2025-12-09T14:52:25.809400+00:00",
        "meta_object_name": "TIANMU-1 22",
        "meta_object_id": "2023-208D",
        "meta_epoch": "2025-12-09T06:32:21.369984",
        "meta_mean_motion": 15.27511126,
        "meta_eccentricity": 0.00027967,
        "meta_inclination": 97.4384,
        "meta_ra_of_asc_node": 94.3774,
        "meta_arg_of_pericenter": 304.218,
        "meta_mean_anomaly": 55.8794,
        "meta_ephemeris_type": 0,
        "meta_classification_type": "U",
        "meta_norad_cat_id": 58663,
        "meta_element_set_no": 999,
        "meta_rev_at_epoch": 10830,
        "meta_bstar": 0.00044316626,
        "meta_mean_motion_dot": 0.00011861,
        "meta_mean_motion_ddot": 0,
        "tle_line1": "1 58663U 23208D   25343.27246956  .00011861  00000+0  44317-3 0  9999",
        "tle_line2": "2 58663  97.4384  94.3774 0002796 304.2180  55.8794 15.27511126108302"
      },
      "geometry": {
        "type": "Point",
        "coordinates": [
          -64.21137061202343,
          70.0238626175734
        ]
      }
    },
    {
      "type": "Feature",
      "properties": {
        "norad_id": 58700,
        "name": "TIANMU-1 15",
        "group": "weather",
        "lat": -82.50697515581093,
        "lon": -109.59404868136389,
        "alt_km": 496.55218248442,
        "timestamp": "2025-12-09T14:52:25.809417+00:00",
        "meta_object_name": "TIANMU-1 15",
        "meta_object_id": "2024-004A",
        "meta_epoch": "2025-12-09T07:23:21.175872",
        "meta_mean_motion": 15.24608668,
        "meta_eccentricity": 0.00053444,
        "meta_inclination": 97.463,
        "meta_ra_of_asc_node": 164.7901,
        "meta_arg_of_pericenter": 313.019,
        "meta_mean_anomaly": 47.0599,
        "meta_ephemeris_type": 0,
        "meta_classification_type": "U",
        "meta_norad_cat_id": 58700,
        "meta_element_set_no": 999,
        "meta_rev_at_epoch": 10682,
        "meta_bstar": 0.0004010005,
        "meta_mean_motion_dot": 9.826e-05,
        "meta_mean_motion_ddot": 0,
        "tle_line1": "1 58700U 24004A   25343.30788398  .00009826  00000+0  40100-3 0  9995",
        "tle_line2": "2 58700  97.4630 164.7901 0005344 313.0190  47.0599 15.24608668106829"
      },
      "geometry": {
        "type": "Point",
        "coordinates": [
          -109.59404868136389,
          -82.50697515581093
        ]
      }
    }
  ]
}